{
  "type": "FeatureCollection",
  "features": [
    {
      "type": "Feature",
      "properties": {
        "norad_id": 66793,
        "name": "STARLINK-36051",
        "group": "last-30-days",
        "lat": -35.345373020571046,
        "lon": 40.8837010026156,
        "alt_km": 417.25383073120247,
        "timestamp": "2025-12-26T05:31:11.217300+00:00",
        "meta_object_name": "STARLINK-36051",
        "meta_object_id": "2025-278C",
        "meta_epoch": "2025-12-25T22:00:01.999584",
        "meta_mean_motion": 15.50497606,
        "meta_eccentricity": 0.00015967,
        "meta_inclination": 43.0004,
        "meta_ra_of_asc_node": 173.1563,
        "meta_arg_of_pericenter": 275.2687,
        "meta_mean_anomaly": 11.8351,
        "meta_ephemeris_type": 0,
        "meta_classification_type": "U",
        "meta_norad_cat_id": 66793,
        "meta_element_set_no": 999,
        "meta_rev_at_epoch": 497,
        "meta_bstar": 0.0018382977,
        "meta_mean_motion_dot": 0.00108696,
        "meta_mean_motion_ddot": 0,
        "tle_line1": "1 66793U 25278C   25359.91668981  .00108696  00000+0  18383-2 0  9991",
        "tle_line2": "2 66793  43.0004 173.1563 0001596 275.2687  11.8351 15.50497606  4970"
      },
      "geometry": {
        "type": "Point",
        "coordinates": [
          40.8837010026156,
          -35.345373020571046
        ]
      }
    },
    {
      "type": "Feature",
      "properties": {
        "norad_id": 66794,
        "name": "STARLINK-36062",
        "group": "last-30-days",
        "lat": -34.484262530143454,
        "lon": 38.81326554956636,
        "alt_km": 417.01325463452304,
        "timestamp": "2025-12-26T05:31:11.217310+00:00",
        "meta_object_name": "STARLINK-36062",
        "meta_object_id": "2025-278D",
        "meta_epoch": "2025-12-25T22:00:01.999584",
        "meta_mean_motion": 15.50555525,
        "meta_eccentricity": 0.00018924,
        "meta_inclination": 43.0003,
        "meta_ra_of_asc_node": 173.1609,
        "meta_arg_of_pericenter": 273.8714,
        "meta_mean_anomaly": 11.2837,
        "meta_ephemeris_type": 0,
        "meta_classification_type": "U",
        "meta_norad_cat_id": 66794,
        "meta_element_set_no": 999,
        "meta_rev_at_epoch": 507,
        "meta_bstar": 0.00068628434,
        "meta_mean_motion_dot": 0.00040093,
        "meta_mean_motion_ddot": 0,
        "tle_line1": "1 66794U 25278D   25359.91668981  .00040093  00000+0  68628-3 0  9996",
        "tle_line2": "2 66794  43.0003 173.1609 0001892 273.8714  11.2837 15.50555525  5075"
      },
      "geometry": {
        "type": "Point",
        "coordinates": [
          38.81326554956636,
          -34.484262530143454
        ]
      }
    },
    {
      "type": "Feature",
      "properties": {
        "norad_id": 66795,
        "name": "STARLINK-36047",
        "group": "last-30-days",
        "lat": -30.730495192230652,
        "lon": 30.985845254095516,
        "alt_km": 432.81552316227135,
        "timestamp": "2025-12-26T05:31:11.217320+00:00",
        "meta_object_name": "STARLINK-36047",
        "meta_object_id": "2025-278E",
        "meta_epoch": "2025-12-25T22:00:01.999584",
        "meta_mean_motion": 15.46616303,
        "meta_eccentricity": 0.00011204,
        "meta_inclination": 43.0006,
        "meta_ra_of_asc_node": 173.1677,
        "meta_arg_of_pericenter": 268.0232,
        "meta_mean_anomaly": 14.7646,
        "meta_ephemeris_type": 0,
        "meta_classification_type": "U",
        "meta_norad_cat_id": 66795,
        "meta_element_set_no": 999,
        "meta_rev_at_epoch": 497,
        "meta_bstar": -0.043538415,
        "meta_mean_motion_dot": -0.01984564,
        "meta_mean_motion_ddot": 0,
        "tle_line1": "1 66795U 25278E   25359.91668981 -.01984564  00000+0 -43538-1 0  9991",
        "tle_line2": "2 66795  43.0006 173.1677 0001120 268.0232  14.7646 15.46616303  4970"
      },
      "geometry": {
        "type": "Point",
        "coordinates": [
          30.985845254095516,
          -30.730495192230652
        ]
      }
    },
    {
      "type": "Feature",
      "properties": {
        "norad_id": 66796,
        "name": "STARLINK-35964",
        "group": "last-30-days",
        "lat": -12.059253629567753,
        "lon": 155.09509747841057,
        "alt_km": 328.1178246550571,
        "timestamp": "2025-12-26T05:31:11.217330+00:00",
        "meta_object_name": "STARLINK-35964",
        "meta_object_id": "2025-278F",
        "meta_epoch": "2025-12-25T20:29:52.712448",
        "meta_mean_motion": 15.80922419,
        "meta_eccentricity": 0.00020933,
        "meta_inclination": 42.9907,
        "meta_ra_of_asc_node": 170.6551,
        "meta_arg_of_pericenter": 269.6595,
        "meta_mean_anomaly": 90.4036,
        "meta_ephemeris_type": 0,
        "meta_classification_type": "U",
        "meta_norad_cat_id": 66796,
        "meta_element_set_no": 999,
        "meta_rev_at_epoch": 392,
        "meta_bstar": 0.00099039699,
        "meta_mean_motion_dot": 0.002024,
        "meta_mean_motion_ddot": 0,
        "tle_line1": "1 66796U 25278F   25359.85408232  .00202400  00000+0  99040-3 0  9996",
        "tle_line2": "2 66796  42.9907 170.6551 0002093 269.6595  90.4036 15.80922419  3925"
      },
      "geometry": {
        "type": "Point",
        "coordinates": [
          155.09509747841057,
          -12.059253629567753
        ]
      }
    },
    {
      "type": "Feature",
      "properties": {
        "norad_id": 66797,
        "name": "STARLINK-36099",
        "group": "last-30-days",
        "lat": -37.71112431648625,
        "lon": 47.38066199757188,
        "alt_km": 417.3513651003259,
        "timestamp": "2025-12-26T05:31:11.217340+00:00",
        "meta_object_name": "STARLINK-36099",
        "meta_object_id": "2025-278G",
        "meta_epoch": "2025-12-25T22:00:01.999584",
        "meta_mean_motion": 15.50502226,
        "meta_eccentricity": 0.00015983,
        "meta_inclination": 43.0004,
        "meta_ra_of_asc_node": 173.142,
        "meta_arg_of_pericenter": 279.7787,
        "meta_mean_anomaly": 13.0691,
        "meta_ephemeris_type": 0,
        "meta_classification_type": "U",
        "meta_norad_cat_id": 66797,
        "meta_element_set_no": 999,
        "meta_rev_at_epoch": 513,
        "meta_bstar": 0.0017773023,
        "meta_mean_motion_dot": 0.00105046,
        "meta_mean_motion_ddot": 0,
        "tle_line1": "1 66797U 25278G   25359.91668981  .00105046  00000+0  17773-2 0  9993",
        "tle_line2": "2 66797  43.0004 173.1420 0001598 279.7787  13.0691 15.50502226  5133"
      },
      "geometry": {
        "type": "Point",
        "coordinates": [
          47.38066199757188,
          -37.71112431648625
        ]
      }
    },
    {
      "type": "Feature",
      "properties": {
        "norad_id": 66798,
        "name": "STARLINK-36041",
        "group": "last-30-days",
        "lat": -38.418079241266966,
        "lon": 49.635411214799035,
        "alt_km": 417.3214286689099,
        "timestamp": "2025-12-26T05:31:11.217350+00:00",
        "meta_object_name": "STARLINK-36041",
        "meta_object_id": "2025-278H",
        "meta_epoch": "2025-12-25T22:00:01.999584",
        "meta_mean_motion": 15.50502307,
        "meta_eccentricity": 0.00016404,
        "meta_inclination": 43.0003,
        "meta_ra_of_asc_node": 173.1368,
        "meta_arg_of_pericenter": 277.6518,
        "meta_mean_anomaly": 17.1133,
        "meta_ephemeris_type": 0,
        "meta_classification_type": "U",
        "meta_norad_cat_id": 66798,
        "meta_element_set_no": 999,
        "meta_rev_at_epoch": 491,
        "meta_bstar": 0.0017335642,
        "meta_mean_motion_dot": 0.00102419,
        "meta_mean_motion_ddot": 0,
        "tle_line1": "1 66798U 25278H   25359.91668981  .00102419  00000+0  17336-2 0  9990",
        "tle_line2": "2 66798  43.0003 173.1368 0001640 277.6518  17.1133 15.50502307  4912"
      },
      "geometry": {
        "type": "Point",
        "coordinates": [
          49.635411214799035,
          -38.418079241266966
        ]
      }
    },
    {
      "type": "Feature",
      "properties": {
        "norad_id": 66799,
        "name": "STARLINK-36044",
        "group": "last-30-days",
        "lat": -39.08168714703387,
        "lon": 51.936844675901405,
        "alt_km": 417.4433452065059,
        "timestamp": "2025-12-26T05:31:11.217366+00:00",
        "meta_object_name": "STARLINK-36044",
        "meta_object_id": "2025-278J",
        "meta_epoch": "2025-12-25T22:00:01.999584",
        "meta_mean_motion": 15.50501292,
        "meta_eccentricity": 0.00014583,
        "meta_inclination": 43.0004,
        "meta_ra_of_asc_node": 173.1325,
        "meta_arg_of_pericenter": 278.4938,
        "meta_mean_anomaly": 18.1897,
        "meta_ephemeris_type": 0,
        "meta_classification_type": "U",
        "meta_norad_cat_id": 66799,
        "meta_element_set_no": 999,
        "meta_rev_at_epoch": 507,
        "meta_bstar": 0.0017719212,
        "meta_mean_motion_dot": 0.00104719,
        "meta_mean_motion_ddot": 0,
        "tle_line1": "1 66799U 25278J   25359.91668981  .00104719  00000+0  17719-2 0  9991",
        "tle_line2": "2 66799  43.0004 173.1325 0001458 278.4938  18.1897 15.50501292  5077"
      },
      "geometry": {
        "type": "Point",
        "coordinates": [
          51.936844675901405,
          -39.08168714703387
        ]
      }
    }
  ]
}